[
  {
    "id": 1,
    "name": "Ø¢ÙŠØ³Ù„Ù†Ø¯Ø§",
    "flag": "ğŸ‡®ğŸ‡¸",
    "code": "IS",
    "dial_code": "+354"
  },
  {
    "id": 2,
    "name": "Ø£Ø°Ø±Ø¨ÙŠØ¬Ø§Ù†",
    "flag": "ğŸ‡¦ğŸ‡¿",
    "code": "AZ",
    "dial_code": "+994"
  },
  {
    "id": 3,
    "name": "Ø£Ø±Ù…ÙŠÙ†ÙŠØ§",
    "flag": "ğŸ‡¦ğŸ‡²",
    "code": "AM",
    "dial_code": "+374"
  },
  {
    "id": 4,
    "name": "Ø£Ø±ÙˆØ¨Ø§",
    "flag": "ğŸ‡¦ğŸ‡¼",
    "code": "AW",
    "dial_code": "+297"
  },
  {
    "id": 5,
    "name": "Ø£Ø³ØªØ±Ø§Ù„ÙŠØ§",
    "flag": "ğŸ‡¦ğŸ‡º",
    "code": "AU",
    "dial_code": "+61"
  },
  {
    "id": 6,
    "name": "Ø£ÙØºØ§Ù†Ø³ØªØ§Ù†",
    "flag": "ğŸ‡¦ğŸ‡«",
    "code": "AF",
    "dial_code": "+93"
  },
  {
    "id": 7,
    "name": "Ø£Ù„Ø¨Ø§Ù†ÙŠØ§",
    "flag": "ğŸ‡¦ğŸ‡±",
    "code": "AL",
    "dial_code": "+355"
  },
  {
    "id": 8,
    "name": "Ø£Ù„Ù…Ø§Ù†ÙŠØ§",
    "flag": "ğŸ‡©ğŸ‡ª",
    "code": "DE",
    "dial_code": "+49"
  },
  {
    "id": 9,
    "name": "Ø£Ù†ØªÙŠØºÙˆØ§ ÙˆØ¨Ø±Ø¨ÙˆØ¯Ø§",
    "flag": "ğŸ‡¦ğŸ‡¬",
    "code": "AG",
    "dial_code": "+1268"
  },
  {
    "id": 10,
    "name": "Ø£Ù†Ø¯ÙˆØ±Ø§",
    "flag": "ğŸ‡¦ğŸ‡©",
    "code": "AD",
    "dial_code": "+376"
  },
  {
    "id": 11,
    "name": "Ø£Ù†ØºÙˆÙ„Ø§",
    "flag": "ğŸ‡¦ğŸ‡´",
    "code": "AO",
    "dial_code": "+244"
  },
  {
    "id": 12,
    "name": "Ø£Ù†ØºÙˆÙŠÙ„Ø§",
    "flag": "ğŸ‡¦ğŸ‡®",
    "code": "AI",
    "dial_code": "+1264"
  },
  {
    "id": 13,
    "name": "Ø£ÙˆØ±ÙˆØºÙˆØ§ÙŠ",
    "flag": "ğŸ‡ºğŸ‡¾",
    "code": "UY",
    "dial_code": "+598"
  },
  {
    "id": 14,
    "name": "Ø£ÙˆØ²Ø¨ÙƒØ³ØªØ§Ù†",
    "flag": "ğŸ‡ºğŸ‡¿",
    "code": "UZ",
    "dial_code": "+998"
  },
  {
    "id": 15,
    "name": "Ø£ÙˆØºÙ†Ø¯Ø§",
    "flag": "ğŸ‡ºğŸ‡¬",
    "code": "UG",
    "dial_code": "+256"
  },
  {
    "id": 16,
    "name": "Ø£ÙˆÙƒØ±Ø§Ù†ÙŠØ§",
    "flag": "ğŸ‡ºğŸ‡¦",
    "code": "UA",
    "dial_code": "+380"
  },
  {
    "id": 17,
    "name": "Ø£ÙŠØ±Ù„Ù†Ø¯Ø§",
    "flag": "ğŸ‡®ğŸ‡ª",
    "code": "IE",
    "dial_code": "+353"
  },
  {
    "id": 18,
    "name": "Ø¥Ø«ÙŠÙˆØ¨ÙŠØ§",
    "flag": "ğŸ‡ªğŸ‡¹",
    "code": "ET",
    "dial_code": "+251"
  },
  {
    "id": 19,
    "name": "Ø¥Ø±ÙŠØªØ±ÙŠØ§",
    "flag": "ğŸ‡ªğŸ‡·",
    "code": "ER",
    "dial_code": "+291"
  },
  {
    "id": 20,
    "name": "Ø¥Ø³Ø¨Ø§Ù†ÙŠØ§",
    "flag": "ğŸ‡ªğŸ‡¸",
    "code": "ES",
    "dial_code": "+34"
  },
  {
    "id": 21,
    "name": "Ø¥Ø³ØªÙˆÙ†ÙŠØ§",
    "flag": "ğŸ‡ªğŸ‡ª",
    "code": "EE",
    "dial_code": "+372"
  },
  {
    "id": 22,
    "name": "Ø¥Ø³ÙˆØ§ØªÙŠÙ†ÙŠ",
    "flag": "ğŸ‡¸ğŸ‡¿",
    "code": "SZ",
    "dial_code": "+268"
  },
  {
    "id": 23,
    "name": "Ø¥Ù†Ø¯ÙˆÙ†ÙŠØ³ÙŠØ§",
    "flag": "ğŸ‡®ğŸ‡©",
    "code": "ID",
    "dial_code": "+62"
  },
  {
    "id": 24,
    "name": "Ø¥ÙŠØ±Ø§Ù†ØŒ Ø§Ù„Ø¬Ù…Ù‡ÙˆØ±ÙŠØ© Ø§Ù„Ø¥Ø³Ù„Ø§Ù…ÙŠØ© Ø§Ù„ÙØ§Ø±Ø³ÙŠØ© Ø§Ù„Ø®Ù„ÙŠØ¬ Ø§Ù„ÙØ§Ø±Ø³ÙŠ",
    "flag": "ğŸ‡®ğŸ‡·",
    "code": "IR",
    "dial_code": "+98"
  },
  {
    "id": 25,
    "name": "Ø¥ÙŠØ·Ø§Ù„ÙŠØ§",
    "flag": "ğŸ‡®ğŸ‡¹",
    "code": "IT",
    "dial_code": "+39"
  },
  {
    "id": 26,
    "name": "Ø§Ù„Ø£Ø±Ø§Ø¶ÙŠ Ø§Ù„ÙÙ„Ø³Ø·ÙŠÙ†ÙŠØ© Ø§Ù„Ù…Ø­ØªÙ„Ø©",
    "flag": "ğŸ‡µğŸ‡¸",
    "code": "PS",
    "dial_code": "+970"
  },
  {
    "id": 27,
    "name": "Ø§Ù„Ø£Ø±Ø¬Ù†ØªÙŠÙ†",
    "flag": "ğŸ‡¦ğŸ‡·",
    "code": "AR",
    "dial_code": "+54"
  },
  {
    "id": 28,
    "name": "Ø§Ù„Ø£Ø±Ø¯Ù†",
    "flag": "ğŸ‡¯ğŸ‡´",
    "code": "JO",
    "dial_code": "+962"
  },
  {
    "id": 29,
    "name": "Ø§Ù„Ø£Ù‚Ø§Ù„ÙŠÙ… Ø§Ù„Ø¬Ù†ÙˆØ¨ÙŠØ© Ø§Ù„ÙØ±Ù†Ø³ÙŠØ©",
    "flag": "ğŸ‡¹ğŸ‡«",
    "code": "TF",
    "dial_code": "+262"
  },
  {
    "id": 30,
    "name": "Ø§Ù„Ø¥ÙƒÙˆØ§Ø¯ÙˆØ±",
    "flag": "ğŸ‡ªğŸ‡¨",
    "code": "EC",
    "dial_code": "+593"
  },
  {
    "id": 31,
    "name": "Ø§Ù„Ø¥Ù…Ø§Ø±Ø§Øª Ø§Ù„Ø¹Ø±Ø¨ÙŠØ© Ø§Ù„Ù…ØªØ­Ø¯Ø©",
    "flag": "ğŸ‡¦ğŸ‡ª",
    "code": "AE",
    "dial_code": "+971"
  },
  {
    "id": 32,
    "name": "Ø§Ù„Ø¨Ø§Ù‡Ø§Ù…Ø§",
    "flag": "ğŸ‡§ğŸ‡¸",
    "code": "BS",
    "dial_code": "+1242"
  },
  {
    "id": 33,
    "name": "Ø§Ù„Ø¨Ø­Ø±ÙŠÙ†",
    "flag": "ğŸ‡§ğŸ‡­",
    "code": "BH",
    "dial_code": "+973"
  },
  {
    "id": 34,
    "name": "Ø§Ù„Ø¨Ø±Ø§Ø²ÙŠÙ„",
    "flag": "ğŸ‡§ğŸ‡·",
    "code": "BR",
    "dial_code": "+55"
  },
  {
    "id": 35,
    "name": "Ø§Ù„Ø¨Ø±ØªØºØ§Ù„",
    "flag": "ğŸ‡µğŸ‡¹",
    "code": "PT",
    "dial_code": "+351"
  },
  {
    "id": 36,
    "name": "Ø§Ù„Ø¨ÙˆØ³Ù†Ø© ÙˆØ§Ù„Ù‡Ø±Ø³Ùƒ",
    "flag": "ğŸ‡§ğŸ‡¦",
    "code": "BA",
    "dial_code": "+387"
  },
  {
    "id": 37,
    "name": "Ø§Ù„ØªØ´ÙŠÙƒ",
    "flag": "ğŸ‡¨ğŸ‡¿",
    "code": "CZ",
    "dial_code": "+420"
  },
  {
    "id": 38,
    "name": "Ø§Ù„Ø¬Ø§Ø¨ÙˆÙ†",
    "flag": "ğŸ‡¬ğŸ‡¦",
    "code": "GA",
    "dial_code": "+241"
  },
  {
    "id": 39,
    "name": "Ø§Ù„Ø¬Ø¨Ù„ Ø§Ù„Ø£Ø³ÙˆØ¯",
    "flag": "ğŸ‡²ğŸ‡ª",
    "code": "ME",
    "dial_code": "+382"
  },
  {
    "id": 40,
    "name": "Ø§Ù„Ø¬Ø²Ø§Ø¦Ø±",
    "flag": "ğŸ‡©ğŸ‡¿",
    "code": "DZ",
    "dial_code": "+213"
  },
  {
    "id": 41,
    "name": "Ø§Ù„Ø¬Ù…Ø§Ù‡ÙŠØ±ÙŠØ© Ø§Ù„Ø¹Ø±Ø¨ÙŠØ© Ø§Ù„Ù„ÙŠØ¨ÙŠØ©",
    "flag": "ğŸ‡±ğŸ‡¾",
    "code": "LY",
    "dial_code": "+218"
  },
  {
    "id": 42,
    "name": "Ø§Ù„Ø¬Ù…Ù‡ÙˆØ±ÙŠØ© Ø§Ù„Ø¹Ø±Ø¨ÙŠØ© Ø§Ù„Ø³ÙˆØ±ÙŠØ©",
    "flag": "ğŸ‡¸ğŸ‡¾",
    "code": "SY",
    "dial_code": "+963"
  },
  {
    "id": 43,
    "name": "Ø§Ù„Ø¯Ù†Ù…Ø§Ø±Ùƒ",
    "flag": "ğŸ‡©ğŸ‡°",
    "code": "DK",
    "dial_code": "+45"
  },
  {
    "id": 44,
    "name": "Ø§Ù„Ø±Ø£Ø³ Ø§Ù„Ø£Ø®Ø¶Ø±",
    "flag": "ğŸ‡¨ğŸ‡»",
    "code": "CV",
    "dial_code": "+238"
  },
  {
    "id": 45,
    "name": "Ø§Ù„Ø³Ù„ÙØ§Ø¯ÙˆØ±",
    "flag": "ğŸ‡¸ğŸ‡»",
    "code": "SV",
    "dial_code": "+503"
  },
  {
    "id": 46,
    "name": "Ø§Ù„Ø³Ù†ØºØ§Ù„",
    "flag": "ğŸ‡¸ğŸ‡³",
    "code": "SN",
    "dial_code": "+221"
  },
  {
    "id": 47,
    "name": "Ø§Ù„Ø³ÙˆØ¯Ø§Ù†",
    "flag": "ğŸ‡¸ğŸ‡©",
    "code": "SD",
    "dial_code": "+249"
  },
  {
    "id": 48,
    "name": "Ø§Ù„Ø³ÙˆÙŠØ¯",
    "flag": "ğŸ‡¸ğŸ‡ª",
    "code": "SE",
    "dial_code": "+46"
  },
  {
    "id": 49,
    "name": "Ø§Ù„ØµÙˆÙ…Ø§Ù„",
    "flag": "ğŸ‡¸ğŸ‡´",
    "code": "SO",
    "dial_code": "+252"
  },
  {
    "id": 50,
    "name": "Ø§Ù„ØµÙŠÙ†",
    "flag": "ğŸ‡¨ğŸ‡³",
    "code": "CN",
    "dial_code": "+86"
  },
  {
    "id": 51,
    "name": "Ø§Ù„Ø¹Ø±Ø§Ù‚",
    "flag": "ğŸ‡®ğŸ‡¶",
    "code": "IQ",
    "dial_code": "+964"
  },
  {
    "id": 52,
    "name": "Ø§Ù„ÙÙ„Ø¨ÙŠÙ†",
    "flag": "ğŸ‡µğŸ‡­",
    "code": "PH",
    "dial_code": "+63"
  },
  {
    "id": 53,
    "name": "Ø§Ù„Ù‚Ø·Ø¨ Ø§Ù„Ø¬Ù†ÙˆØ¨ÙŠ",
    "flag": "ğŸ‡¦ğŸ‡¶",
    "code": "AQ",
    "dial_code": "+672"
  },
  {
    "id": 54,
    "name": "Ø§Ù„ÙƒØ§Ù…ÙŠØ±ÙˆÙ†",
    "flag": "ğŸ‡¨ğŸ‡²",
    "code": "CM",
    "dial_code": "+237"
  },
  {
    "id": 55,
    "name": "Ø§Ù„ÙƒÙˆÙŠØª",
    "flag": "ğŸ‡°ğŸ‡¼",
    "code": "KW",
    "dial_code": "+965"
  },
  {
    "id": 56,
    "name": "Ø§Ù„Ù…Ø­ÙŠØ· Ø§Ù„Ù‡Ù†Ø¯ÙŠ Ø§Ù„Ø¨Ø±ÙŠØ·Ø§Ù†ÙŠ",
    "flag": "ğŸ‡®ğŸ‡´",
    "code": "IO",
    "dial_code": "+246"
  },
  {
    "id": 57,
    "name": "Ø§Ù„Ù…ØºØ±Ø¨",
    "flag": "ğŸ‡²ğŸ‡¦",
    "code": "MA",
    "dial_code": "+212"
  },
  {
    "id": 58,
    "name": "Ø§Ù„Ù…ÙƒØ³ÙŠÙƒ",
    "flag": "ğŸ‡²ğŸ‡½",
    "code": "MX",
    "dial_code": "+52"
  },
  {
    "id": 59,
    "name": "Ø§Ù„Ù…Ù…Ù„ÙƒØ© Ø§Ù„Ø¹Ø±Ø¨ÙŠØ© Ø§Ù„Ø³Ø¹ÙˆØ¯ÙŠØ©",
    "flag": "ğŸ‡¸ğŸ‡¦",
    "code": "SA",
    "dial_code": "+966"
  },
  {
    "id": 60,
    "name": "Ø§Ù„Ù…Ù…Ù„ÙƒØ© Ø§Ù„Ù…ØªØ­Ø¯Ø©",
    "flag": "ğŸ‡¬ğŸ‡§",
    "code": "GB",
    "dial_code": "+44"
  },
  {
    "id": 61,
    "name": "Ø§Ù„Ù†Ø±ÙˆÙŠØ¬",
    "flag": "ğŸ‡³ğŸ‡´",
    "code": "NO",
    "dial_code": "+47"
  },
  {
    "id": 62,
    "name": "Ø§Ù„Ù†Ù…Ø³Ø§",
    "flag": "ğŸ‡¦ğŸ‡¹",
    "code": "AT",
    "dial_code": "+43"
  },
  {
    "id": 63,
    "name": "Ø§Ù„Ù†ÙŠØ¬Ø±",
    "flag": "ğŸ‡³ğŸ‡ª",
    "code": "NE",
    "dial_code": "+227"
  },
  {
    "id": 64,
    "name": "Ø§Ù„Ù‡Ù†Ø¯",
    "flag": "ğŸ‡®ğŸ‡³",
    "code": "IN",
    "dial_code": "+91"
  },
  {
    "id": 65,
    "name": "Ø§Ù„ÙˆÙ„Ø§ÙŠØ§Øª Ø§Ù„Ù…ØªØ­Ø¯Ø©",
    "flag": "ğŸ‡ºğŸ‡¸",
    "code": "US",
    "dial_code": "+1"
  },
  {
    "id": 66,
    "name": "Ø§Ù„ÙŠØ§Ø¨Ø§Ù†",
    "flag": "ğŸ‡¯ğŸ‡µ",
    "code": "JP",
    "dial_code": "+81"
  },
  {
    "id": 67,
    "name": "Ø§Ù„ÙŠÙ…Ù†",
    "flag": "ğŸ‡¾ğŸ‡ª",
    "code": "YE",
    "dial_code": "+967"
  },
  {
    "id": 68,
    "name": "Ø§Ù„ÙŠÙˆÙ†Ø§Ù†",
    "flag": "ğŸ‡¬ğŸ‡·",
    "code": "GR",
    "dial_code": "+30"
  },
  {
    "id": 69,
    "name": "Ø¨Ø§Ø¨ÙˆØ§ ØºÙŠÙ†ÙŠØ§ Ø§Ù„Ø¬Ø¯ÙŠØ¯Ø©",
    "flag": "ğŸ‡µğŸ‡¬",
    "code": "PG",
    "dial_code": "+675"
  },
  {
    "id": 70,
    "name": "Ø¨Ø§Ø±Ø§ØºÙˆØ§ÙŠ",
    "flag": "ğŸ‡µğŸ‡¾",
    "code": "PY",
    "dial_code": "+595"
  },
  {
    "id": 71,
    "name": "Ø¨Ø§ÙƒØ³ØªØ§Ù†",
    "flag": "ğŸ‡µğŸ‡°",
    "code": "PK",
    "dial_code": "+92"
  },
  {
    "id": 72,
    "name": "Ø¨Ø§Ù„Ø§Ùˆ",
    "flag": "ğŸ‡µğŸ‡¼",
    "code": "PW",
    "dial_code": "+680"
  },
  {
    "id": 73,
    "name": "Ø¨Ø±Ø¨Ø§Ø¯ÙˆØ³",
    "flag": "ğŸ‡§ğŸ‡§",
    "code": "BB",
    "dial_code": "+1246"
  },
  {
    "id": 74,
    "name": "Ø¨Ø±Ù…ÙˆØ¯Ø§",
    "flag": "ğŸ‡§ğŸ‡²",
    "code": "BM",
    "dial_code": "+1441"
  },
  {
    "id": 75,
    "name": "Ø¨Ø±ÙˆÙ†Ø§ÙŠ",
    "flag": "ğŸ‡§ğŸ‡³",
    "code": "BN",
    "dial_code": "+673"
  },
  {
    "id": 76,
    "name": "Ø¨Ù„Ø¬ÙŠÙƒØ§",
    "flag": "ğŸ‡§ğŸ‡ª",
    "code": "BE",
    "dial_code": "+32"
  },
  {
    "id": 77,
    "name": "Ø¨Ù„ØºØ§Ø±ÙŠØ§",
    "flag": "ğŸ‡§ğŸ‡¬",
    "code": "BG",
    "dial_code": "+359"
  },
  {
    "id": 78,
    "name": "Ø¨Ù„ÙŠØ²",
    "flag": "ğŸ‡§ğŸ‡¿",
    "code": "BZ",
    "dial_code": "+501"
  },
  {
    "id": 79,
    "name": "Ø¨Ù†Ø¬Ù„Ø§Ø¯ÙŠØ´",
    "flag": "ğŸ‡§ğŸ‡©",
    "code": "BD",
    "dial_code": "+880"
  },
  {
    "id": 80,
    "name": "Ø¨Ù†Ù…Ø§",
    "flag": "ğŸ‡µğŸ‡¦",
    "code": "PA",
    "dial_code": "+507"
  },
  {
    "id": 81,
    "name": "Ø¨Ù†ÙŠÙ†",
    "flag": "ğŸ‡§ğŸ‡¯",
    "code": "BJ",
    "dial_code": "+229"
  },
  {
    "id": 82,
    "name": "Ø¨ÙˆØªØ§Ù†",
    "flag": "ğŸ‡§ğŸ‡¹",
    "code": "BT",
    "dial_code": "+975"
  },
  {
    "id": 83,
    "name": "Ø¨ÙˆØªØ³ÙˆØ§Ù†Ø§",
    "flag": "ğŸ‡§ğŸ‡¼",
    "code": "BW",
    "dial_code": "+267"
  },
  {
    "id": 84,
    "name": "Ø¨ÙˆØ±ØªÙˆ Ø±ÙŠÙƒÙˆ",
    "flag": "ğŸ‡µğŸ‡·",
    "code": "PR",
    "dial_code": "+1"
  },
  {
    "id": 85,
    "name": "Ø¨ÙˆØ±ÙƒÙŠÙ†Ø§ ÙØ§Ø³Ùˆ",
    "flag": "ğŸ‡§ğŸ‡«",
    "code": "BF",
    "dial_code": "+226"
  },
  {
    "id": 86,
    "name": "Ø¨ÙˆØ±ÙˆÙ†Ø¯ÙŠ",
    "flag": "ğŸ‡§ğŸ‡®",
    "code": "BI",
    "dial_code": "+257"
  },
  {
    "id": 87,
    "name": "Ø¨ÙˆÙ„Ù†Ø¯Ø§",
    "flag": "ğŸ‡µğŸ‡±",
    "code": "PL",
    "dial_code": "+48"
  },
  {
    "id": 88,
    "name": "Ø¨ÙˆÙ„ÙŠÙÙŠØ§ØŒ Ø¯ÙˆÙ„Ø© Ø§Ù„ØªØ¹Ø¯Ø¯ Ø§Ù„Ù‚ÙˆÙ…ÙŠ",
    "flag": "ğŸ‡§ğŸ‡´",
    "code": "BO",
    "dial_code": "+591"
  },
  {
    "id": 89,
    "name": "Ø¨ÙˆÙ„ÙŠÙ†ÙŠØ²ÙŠØ§ Ø§Ù„ÙØ±Ù†Ø³ÙŠØ©",
    "flag": "ğŸ‡µğŸ‡«",
    "code": "PF",
    "dial_code": "+689"
  },
  {
    "id": 90,
    "name": "Ø¨ÙŠØªÙƒÙŠØ±Ù†",
    "flag": "ğŸ‡µğŸ‡³",
    "code": "PN",
    "dial_code": "+64"
  },
  {
    "id": 91,
    "name": "Ø¨ÙŠØ±Ùˆ",
    "flag": "ğŸ‡µğŸ‡ª",
    "code": "PE",
    "dial_code": "+51"
  },
  {
    "id": 92,
    "name": "Ø¨ÙŠÙ„Ø§Ø±ÙˆØ³ÙŠØ§",
    "flag": "ğŸ‡§ğŸ‡¾",
    "code": "BY",
    "dial_code": "+375"
  },
  {
    "id": 93,
    "name": "ØªØ§ÙŠÙ„Ø§Ù†Ø¯",
    "flag": "ğŸ‡¹ğŸ‡­",
    "code": "TH",
    "dial_code": "+66"
  },
  {
    "id": 94,
    "name": "ØªØ§ÙŠÙˆØ§Ù†",
    "flag": "ğŸ‡¹ğŸ‡¼",
    "code": "TW",
    "dial_code": "+886"
  },
  {
    "id": 95,
    "name": "ØªØ±ÙƒÙ…Ø§Ù†Ø³ØªØ§Ù†",
    "flag": "ğŸ‡¹ğŸ‡²",
    "code": "TM",
    "dial_code": "+993"
  },
  {
    "id": 96,
    "name": "ØªØ±ÙƒÙŠØ§",
    "flag": "ğŸ‡¹ğŸ‡·",
    "code": "TR",
    "dial_code": "+90"
  },
  {
    "id": 97,
    "name": "ØªØ±ÙŠÙ†ÙŠØ¯Ø§Ø¯ ÙˆØªÙˆØ¨Ø§ØºÙˆ",
    "flag": "ğŸ‡¹ğŸ‡¹",
    "code": "TT",
    "dial_code": "+1868"
  },
  {
    "id": 98,
    "name": "ØªØ´Ø§Ø¯",
    "flag": "ğŸ‡¹ğŸ‡©",
    "code": "TD",
    "dial_code": "+235"
  },
  {
    "id": 99,
    "name": "ØªÙ†Ø²Ø§Ù†ÙŠØ§ØŒ Ø¬Ù…Ù‡ÙˆØ±ÙŠØ© ØªÙ†Ø²Ø§Ù†ÙŠØ§ Ø§Ù„Ù…ØªØ­Ø¯Ø©",
    "flag": "ğŸ‡¹ğŸ‡¿",
    "code": "TZ",
    "dial_code": "+255"
  },
  {
    "id": 100,
    "name": "ØªÙˆØºÙˆ",
    "flag": "ğŸ‡¹ğŸ‡¬",
    "code": "TG",
    "dial_code": "+228"
  },
  {
    "id": 101,
    "name": "ØªÙˆÙØ§Ù„Ùˆ",
    "flag": "ğŸ‡¹ğŸ‡»",
    "code": "TV",
    "dial_code": "+688"
  },
  {
    "id": 102,
    "name": "ØªÙˆÙƒÙŠÙ„Ø§Ùˆ",
    "flag": "ğŸ‡¹ğŸ‡°",
    "code": "TK",
    "dial_code": "+690"
  },
  {
    "id": 103,
    "name": "ØªÙˆÙ†Ø¬Ø§",
    "flag": "ğŸ‡¹ğŸ‡´",
    "code": "TO",
    "dial_code": "+676"
  },
  {
    "id": 104,
    "name": "ØªÙˆÙ†Ø³",
    "flag": "ğŸ‡¹ğŸ‡³",
    "code": "TN",
    "dial_code": "+216"
  },
  {
    "id": 105,
    "name": "ØªÙŠÙ…ÙˆØ± Ø§Ù„Ø´Ø±Ù‚ÙŠØ©",
    "flag": "ğŸ‡¹ğŸ‡±",
    "code": "TL",
    "dial_code": "+670"
  },
  {
    "id": 106,
    "name": "Ø¬Ø§Ù…Ø§ÙŠÙƒØ§",
    "flag": "ğŸ‡¯ğŸ‡²",
    "code": "JM",
    "dial_code": "+1876"
  },
  {
    "id": 107,
    "name": "Ø¬Ø¨Ù„ Ø·Ø§Ø±Ù‚",
    "flag": "ğŸ‡¬ğŸ‡®",
    "code": "GI",
    "dial_code": "+350"
  },
  {
    "id": 108,
    "name": "Ø¬Ø±ÙŠÙ†Ù„Ø§Ù†Ø¯",
    "flag": "ğŸ‡¬ğŸ‡±",
    "code": "GL",
    "dial_code": "+299"
  },
  {
    "id": 109,
    "name": "Ø¬Ø²Ø± Ø£ÙˆÙ„Ø§Ù†Ø¯",
    "flag": "ğŸ‡¦ğŸ‡½",
    "code": "AX",
    "dial_code": "+358"
  },
  {
    "id": 110,
    "name": "Ø¬Ø²Ø± Ø§Ù„Ø£Ù†ØªÙŠÙ„ Ø§Ù„Ù‡ÙˆÙ„Ù†Ø¯ÙŠØ©",
    "flag": "",
    "code": "AN",
    "dial_code": "+599"
  },
  {
    "id": 111,
    "name": "Ø¬Ø²Ø± Ø§Ù„Ù‚Ù…Ø±",
    "flag": "ğŸ‡°ğŸ‡²",
    "code": "KM",
    "dial_code": "+269"
  },
  {
    "id": 112,
    "name": "Ø¬Ø²Ø± Ø§Ù„Ù…Ø§Ù„Ø¯ÙŠÙ",
    "flag": "ğŸ‡²ğŸ‡»",
    "code": "MV",
    "dial_code": "+960"
  },
  {
    "id": 113,
    "name": "Ø¬Ø²Ø± ØªØ±ÙƒØ³ ÙˆÙƒØ§ÙŠÙƒÙˆØ³",
    "flag": "ğŸ‡¹ğŸ‡¨",
    "code": "TC",
    "dial_code": "+1649"
  },
  {
    "id": 114,
    "name": "Ø¬Ø²Ø± Ø³Ù„ÙŠÙ…Ø§Ù†",
    "flag": "ğŸ‡¸ğŸ‡§",
    "code": "SB",
    "dial_code": "+677"
  },
  {
    "id": 115,
    "name": "Ø¬Ø²Ø± ÙØ§Ø±Ùˆ",
    "flag": "ğŸ‡«ğŸ‡´",
    "code": "FO",
    "dial_code": "+298"
  },
  {
    "id": 116,
    "name": "Ø¬Ø²Ø± ÙÙˆÙƒÙ„Ø§Ù†Ø¯ (Ù…Ø§Ù„ÙÙŠÙ†Ø§Ø³)",
    "flag": "ğŸ‡«ğŸ‡°",
    "code": "FK",
    "dial_code": "+500"
  },
  {
    "id": 117,
    "name": "Ø¬Ø²Ø± ÙÙŠØ±Ø¬Ù† Ø§Ù„Ø¨Ø±ÙŠØ·Ø§Ù†ÙŠØ©",
    "flag": "ğŸ‡»ğŸ‡¬",
    "code": "VG",
    "dial_code": "+1284"
  },
  {
    "id": 118,
    "name": "Ø¬Ø²Ø± ÙÙŠØ±Ø¬Ù†ØŒ Ø§Ù„ÙˆÙ„Ø§ÙŠØ§Øª Ø§Ù„Ù…ØªØ­Ø¯Ø©",
    "flag": "ğŸ‡»ğŸ‡®",
    "code": "VI",
    "dial_code": "+1340"
  },
  {
    "id": 119,
    "name": "Ø¬Ø²Ø± ÙƒØ§ÙŠÙ…Ø§Ù†",
    "flag": "ğŸ‡°ğŸ‡¾",
    "code": "KY",
    "dial_code": "+1345"
  },
  {
    "id": 120,
    "name": "Ø¬Ø²Ø± ÙƒÙˆÙƒ",
    "flag": "ğŸ‡¨ğŸ‡°",
    "code": "CK",
    "dial_code": "+682"
  },
  {
    "id": 121,
    "name": "Ø¬Ø²Ø± ÙƒÙˆÙƒÙˆØ³",
    "flag": "ğŸ‡¨ğŸ‡¨",
    "code": "CC",
    "dial_code": "+61"
  },
  {
    "id": 122,
    "name": "Ø¬Ø²Ø± Ù…Ø§Ø±Ø´Ø§Ù„",
    "flag": "ğŸ‡²ğŸ‡­",
    "code": "MH",
    "dial_code": "+692"
  },
  {
    "id": 123,
    "name": "Ø¬Ø²Ø± Ù…Ø§Ø±ÙŠØ§Ù†Ø§ Ø§Ù„Ø´Ù…Ø§Ù„ÙŠØ©",
    "flag": "ğŸ‡²ğŸ‡µ",
    "code": "MP",
    "dial_code": "+1670"
  },
  {
    "id": 124,
    "name": "Ø¬Ø²Ø± Ù‡ÙŠØ±Ø¯ ÙˆÙ…Ø§ÙƒØ¯ÙˆÙ†Ø§Ù„Ø¯",
    "flag": "ğŸ‡­ğŸ‡²",
    "code": "HM",
    "dial_code": "+672"
  },
  {
    "id": 125,
    "name": "Ø¬Ø²ÙŠØ±Ø© Ø¨ÙˆÙÙŠÙ‡",
    "flag": "ğŸ‡§ğŸ‡»",
    "code": "BV",
    "dial_code": "+47"
  },
  {
    "id": 126,
    "name": "Ø¬Ø²ÙŠØ±Ø© ÙƒØ±ÙŠØ³Ù…Ø§Ø³",
    "flag": "ğŸ‡¨ğŸ‡½",
    "code": "CX",
    "dial_code": "+61"
  },
  {
    "id": 127,
    "name": "Ø¬Ø²ÙŠØ±Ø© Ù…Ø§Ù†",
    "flag": "ğŸ‡®ğŸ‡²",
    "code": "IM",
    "dial_code": "+44"
  },
  {
    "id": 128,
    "name": "Ø¬Ø²ÙŠØ±Ø© Ù†ÙˆØ±ÙÙˆÙ„Ùƒ",
    "flag": "ğŸ‡³ğŸ‡«",
    "code": "NF",
    "dial_code": "+672"
  },
  {
    "id": 129,
    "name": "Ø¬Ù…Ù‡ÙˆØ±ÙŠØ© Ø£ÙØ±ÙŠÙ‚ÙŠØ§ Ø§Ù„ÙˆØ³Ø·Ù‰",
    "flag": "ğŸ‡¨ğŸ‡«",
    "code": "CF",
    "dial_code": "+236"
  },
  {
    "id": 130,
    "name": "Ø¬Ù…Ù‡ÙˆØ±ÙŠØ© Ø§Ù„Ø¯ÙˆÙ…ÙŠÙ†ÙŠÙƒØ§Ù†",
    "flag": "ğŸ‡©ğŸ‡´",
    "code": "DO",
    "dial_code": "+1849"
  },
  {
    "id": 131,
    "name": "Ø¬Ù…Ù‡ÙˆØ±ÙŠØ© Ø§Ù„ÙƒÙˆÙ†ØºÙˆ",
    "flag": "ğŸ‡¨ğŸ‡¬",
    "code": "CG",
    "dial_code": "+242"
  },
  {
    "id": 132,
    "name": "Ø¬Ù…Ù‡ÙˆØ±ÙŠØ© Ø§Ù„ÙƒÙˆÙ†ØºÙˆ Ø§Ù„Ø¯ÙŠÙ…Ù‚Ø±Ø§Ø·ÙŠØ©",
    "flag": "ğŸ‡¨ğŸ‡©",
    "code": "CD",
    "dial_code": "+243"
  },
  {
    "id": 133,
    "name": "Ø¬Ù†ÙˆØ¨ Ø£ÙØ±ÙŠÙ‚ÙŠØ§",
    "flag": "ğŸ‡¿ğŸ‡¦",
    "code": "ZA",
    "dial_code": "+27"
  },
  {
    "id": 134,
    "name": "Ø¬Ù†ÙˆØ¨ Ø§Ù„Ø³ÙˆØ¯Ø§Ù†",
    "flag": "ğŸ‡¸ğŸ‡¸",
    "code": "SS",
    "dial_code": "+211"
  },
  {
    "id": 135,
    "name": "Ø¬ÙˆØ§Ø¯Ù„ÙˆØ¨",
    "flag": "ğŸ‡¬ğŸ‡µ",
    "code": "GP",
    "dial_code": "+590"
  },
  {
    "id": 136,
    "name": "Ø¬ÙˆØ±Ø¬ÙŠØ§",
    "flag": "ğŸ‡¬ğŸ‡ª",
    "code": "GE",
    "dial_code": "+995"
  },
  {
    "id": 137,
    "name": "Ø¬ÙˆØ±Ø¬ÙŠØ§ Ø§Ù„Ø¬Ù†ÙˆØ¨ÙŠØ© ÙˆØ¬Ø²Ø± Ø³Ø§Ù†Ø¯ÙˆÙŠØªØ´ Ø§Ù„Ø¬Ù†ÙˆØ¨ÙŠØ©",
    "flag": "ğŸ‡¬ğŸ‡¸",
    "code": "GS",
    "dial_code": "+500"
  },
  {
    "id": 138,
    "name": "Ø¬ÙŠØ¨ÙˆØªÙŠ",
    "flag": "ğŸ‡©ğŸ‡¯",
    "code": "DJ",
    "dial_code": "+253"
  },
  {
    "id": 139,
    "name": "Ø¬ÙŠØ¨ÙˆØªÙŠ",
    "flag": "ğŸ‡©ğŸ‡¯",
    "code": "DJ",
    "dial_code": "+253"
  },
  {
    "id": 140,
    "name": "Ø¬ÙŠØ±Ø³ÙŠ",
    "flag": "ğŸ‡¯ğŸ‡ª",
    "code": "JE",
    "dial_code": "+44"
  },
  {
    "id": 141,
    "name": "Ø¯ÙˆÙ„Ø© Ø§Ù„ÙØ§ØªÙŠÙƒØ§Ù†",
    "flag": "ğŸ‡»ğŸ‡¦",
    "code": "VA",
    "dial_code": "+379"
  },
  {
    "id": 142,
    "name": "Ø¯ÙˆÙ…ÙŠÙ†ÙŠÙƒØ§",
    "flag": "ğŸ‡©ğŸ‡²",
    "code": "DM",
    "dial_code": "+1767"
  },
  {
    "id": 143,
    "name": "Ø±ÙˆØ§Ù†Ø¯Ø§",
    "flag": "ğŸ‡·ğŸ‡¼",
    "code": "RW",
    "dial_code": "+250"
  },
  {
    "id": 144,
    "name": "Ø±ÙˆØ³ÙŠØ§",
    "flag": "ğŸ‡·ğŸ‡º",
    "code": "RU",
    "dial_code": "+7"
  },
  {
    "id": 145,
    "name": "Ø±ÙˆÙ…Ø§Ù†ÙŠØ§",
    "flag": "ğŸ‡·ğŸ‡´",
    "code": "RO",
    "dial_code": "+40"
  },
  {
    "id": 146,
    "name": "Ø±ÙŠÙˆÙ†ÙŠÙˆÙ†",
    "flag": "ğŸ‡·ğŸ‡ª",
    "code": "RE",
    "dial_code": "+262"
  },
  {
    "id": 147,
    "name": "Ø²Ø§Ù…Ø¨ÙŠØ§",
    "flag": "ğŸ‡¿ğŸ‡²",
    "code": "ZM",
    "dial_code": "+260"
  },
  {
    "id": 148,
    "name": "Ø²ÙŠÙ…Ø¨Ø§Ø¨ÙˆÙŠ",
    "flag": "ğŸ‡¿ğŸ‡¼",
    "code": "ZW",
    "dial_code": "+263"
  },
  {
    "id": 149,
    "name": "Ø³Ø§Ù…ÙˆØ§",
    "flag": "ğŸ‡¼ğŸ‡¸",
    "code": "WS",
    "dial_code": "+685"
  },
  {
    "id": 150,
    "name": "Ø³Ø§Ù…ÙˆØ§ Ø§Ù„Ø£Ù…Ø±ÙŠÙƒÙŠØ©",
    "flag": "ğŸ‡¦ğŸ‡¸",
    "code": "AS",
    "dial_code": "+1684"
  },
  {
    "id": 151,
    "name": "Ø³Ø§Ù† Ø¨Ø§Ø±ØªÙŠÙ„Ù…ÙŠ",
    "flag": "ğŸ‡§ğŸ‡±",
    "code": "BL",
    "dial_code": "+590"
  },
  {
    "id": 152,
    "name": "Ø³Ø§Ù† Ø¨ÙŠÙŠØ± ÙˆÙ…ÙŠÙƒÙ„ÙˆÙ†",
    "flag": "ğŸ‡µğŸ‡²",
    "code": "PM",
    "dial_code": "+508"
  },
  {
    "id": 153,
    "name": "Ø³Ø§Ù† Ù…Ø§Ø±ÙŠÙ†Ùˆ",
    "flag": "ğŸ‡¸ğŸ‡²",
    "code": "SM",
    "dial_code": "+378"
  },
  {
    "id": 154,
    "name": "Ø³Ø§Ù†Øª ÙÙŠÙ†Ø³Ù†Øª ÙˆØ¬Ø²Ø± ØºØ±ÙŠÙ†Ø§Ø¯ÙŠÙ†",
    "flag": "ğŸ‡»ğŸ‡¨",
    "code": "VC",
    "dial_code": "+1784"
  },
  {
    "id": 155,
    "name": "Ø³Ø§Ù†Øª ÙƒÙŠØªØ³ ÙˆÙ†ÙŠÙÙŠØ³",
    "flag": "ğŸ‡°ğŸ‡³",
    "code": "KN",
    "dial_code": "+1869"
  },
  {
    "id": 156,
    "name": "Ø³Ø§Ù†Øª Ù„ÙˆØ³ÙŠØ§",
    "flag": "ğŸ‡±ğŸ‡¨",
    "code": "LC",
    "dial_code": "+1758"
  },
  {
    "id": 157,
    "name": "Ø³Ø§Ù†Øª Ù…Ø§Ø±ØªÙ†",
    "flag": "ğŸ‡²ğŸ‡«",
    "code": "MF",
    "dial_code": "+590"
  },
  {
    "id": 158,
    "name": "Ø³Ø§Ù†Øª Ù‡ÙŠÙ„ÙŠÙ†Ø§ ÙˆØ£Ø³ÙŠÙ†Ø´Ù† ÙˆØªØ±ÙŠØ³ØªØ§Ù† Ø¯Ø§ ÙƒÙˆÙ†Ø§",
    "flag": "ğŸ‡¸ğŸ‡­",
    "code": "SH",
    "dial_code": "+290"
  },
  {
    "id": 159,
    "name": "Ø³Ø§Ùˆ ØªÙˆÙ…ÙŠ ÙˆØ¨Ø±ÙŠÙ†Ø³ÙŠØ¨",
    "flag": "ğŸ‡¸ğŸ‡¹",
    "code": "ST",
    "dial_code": "+239"
  },
  {
    "id": 160,
    "name": "Ø³Ø±ÙŠÙ„Ø§Ù†ÙƒØ§",
    "flag": "ğŸ‡±ğŸ‡°",
    "code": "LK",
    "dial_code": "+94"
  },
  {
    "id": 161,
    "name": "Ø³ÙØ§Ù„Ø¨Ø§Ø±Ø¯ ÙˆØ¬Ø§Ù† Ù…Ø§ÙŠÙ†",
    "flag": "ğŸ‡¸ğŸ‡¯",
    "code": "SJ",
    "dial_code": "+47"
  },
  {
    "id": 162,
    "name": "Ø³Ù„ÙˆÙØ§ÙƒÙŠØ§",
    "flag": "ğŸ‡¸ğŸ‡°",
    "code": "SK",
    "dial_code": "+421"
  },
  {
    "id": 163,
    "name": "Ø³Ù„ÙˆÙÙŠÙ†ÙŠØ§",
    "flag": "ğŸ‡¸ğŸ‡®",
    "code": "SI",
    "dial_code": "+386"
  },
  {
    "id": 164,
    "name": "Ø³Ù†ØºØ§ÙÙˆØ±Ø©",
    "flag": "ğŸ‡¸ğŸ‡¬",
    "code": "SG",
    "dial_code": "+65"
  },
  {
    "id": 165,
    "name": "Ø³ÙˆØ±ÙŠÙ†Ø§Ù…",
    "flag": "ğŸ‡¸ğŸ‡·",
    "code": "SR",
    "dial_code": "+597"
  },
  {
    "id": 166,
    "name": "Ø³ÙˆÙŠØ³Ø±Ø§",
    "flag": "ğŸ‡¨ğŸ‡­",
    "code": "CH",
    "dial_code": "+41"
  },
  {
    "id": 167,
    "name": "Ø³ÙŠØ±Ø§Ù„ÙŠÙˆÙ†",
    "flag": "ğŸ‡¸ğŸ‡±",
    "code": "SL",
    "dial_code": "+232"
  },
  {
    "id": 168,
    "name": "Ø³ÙŠØ´Ù„",
    "flag": "ğŸ‡¸ğŸ‡¨",
    "code": "SC",
    "dial_code": "+248"
  },
  {
    "id": 169,
    "name": "Ø´ÙŠÙ„ÙŠ",
    "flag": "ğŸ‡¨ğŸ‡±",
    "code": "CL",
    "dial_code": "+56"
  },
  {
    "id": 170,
    "name": "ØµØ±Ø¨ÙŠØ§",
    "flag": "ğŸ‡·ğŸ‡¸",
    "code": "RS",
    "dial_code": "+381"
  },
  {
    "id": 171,
    "name": "Ø·Ø§Ø¬ÙŠÙƒØ³ØªØ§Ù†",
    "flag": "ğŸ‡¹ğŸ‡¯",
    "code": "TJ",
    "dial_code": "+992"
  },
  {
    "id": 172,
    "name": "Ø¹Ù…Ø§Ù†",
    "flag": "ğŸ‡´ğŸ‡²",
    "code": "OM",
    "dial_code": "+968"
  },
  {
    "id": 173,
    "name": "ØºØ§Ù…Ø¨ÙŠØ§",
    "flag": "ğŸ‡¬ğŸ‡²",
    "code": "GM",
    "dial_code": "+220"
  },
  {
    "id": 174,
    "name": "ØºØ§Ù†Ø§",
    "flag": "ğŸ‡¬ğŸ‡­",
    "code": "GH",
    "dial_code": "+233"
  },
  {
    "id": 175,
    "name": "ØºØ±ÙŠÙ†Ø§Ø¯Ø§",
    "flag": "ğŸ‡¬ğŸ‡©",
    "code": "GD",
    "dial_code": "+1473"
  },
  {
    "id": 176,
    "name": "ØºÙˆØ§ØªÙŠÙ…Ø§Ù„Ø§",
    "flag": "ğŸ‡¬ğŸ‡¹",
    "code": "GT",
    "dial_code": "+502"
  },
  {
    "id": 177,
    "name": "ØºÙˆØ§Ù…",
    "flag": "ğŸ‡¬ğŸ‡º",
    "code": "GU",
    "dial_code": "+1671"
  },
  {
    "id": 178,
    "name": "ØºÙˆÙŠØ§Ù†Ø§ Ø§Ù„ÙØ±Ù†Ø³ÙŠØ©",
    "flag": "ğŸ‡¬ğŸ‡«",
    "code": "GF",
    "dial_code": "+594"
  },
  {
    "id": 179,
    "name": "ØºÙŠØ§Ù†Ø§",
    "flag": "ğŸ‡¬ğŸ‡¾",
    "code": "GY",
    "dial_code": "+592"
  },
  {
    "id": 180,
    "name": "ØºÙŠØ±Ù†Ø²ÙŠ",
    "flag": "ğŸ‡¬ğŸ‡¬",
    "code": "GG",
    "dial_code": "+44"
  },
  {
    "id": 181,
    "name": "ØºÙŠÙ†ÙŠØ§",
    "flag": "ğŸ‡¬ğŸ‡³",
    "code": "GN",
    "dial_code": "+224"
  },
  {
    "id": 182,
    "name": "ØºÙŠÙ†ÙŠØ§ Ø§Ù„Ø§Ø³ØªÙˆØ§Ø¦ÙŠØ©",
    "flag": "ğŸ‡¬ğŸ‡¶",
    "code": "GQ",
    "dial_code": "+240"
  },
  {
    "id": 183,
    "name": "ØºÙŠÙ†ÙŠØ§ Ø¨ÙŠØ³Ø§Ùˆ",
    "flag": "ğŸ‡¬ğŸ‡¼",
    "code": "GW",
    "dial_code": "+245"
  },
  {
    "id": 184,
    "name": "ÙØ§Ù†ÙˆØ§ØªÙˆ",
    "flag": "ğŸ‡»ğŸ‡º",
    "code": "VU",
    "dial_code": "+678"
  },
  {
    "id": 185,
    "name": "ÙØ±Ù†Ø³Ø§",
    "flag": "ğŸ‡«ğŸ‡·",
    "code": "FR",
    "dial_code": "+33"
  },
  {
    "id": 186,
    "name": "ÙÙ†Ø²ÙˆÙŠÙ„Ø§ØŒ Ø¬Ù…Ù‡ÙˆØ±ÙŠØ© ÙÙ†Ø²ÙˆÙŠÙ„Ø§ Ø§Ù„Ø¨ÙˆÙ„ÙŠÙØ§Ø±ÙŠØ©",
    "flag": "ğŸ‡»ğŸ‡ª",
    "code": "VE",
    "dial_code": "+58"
  },
  {
    "id": 187,
    "name": "ÙÙ†Ù„Ù†Ø¯Ø§",
    "flag": "ğŸ‡«ğŸ‡®",
    "code": "FI",
    "dial_code": "+358"
  },
  {
    "id": 188,
    "name": "ÙÙŠØªÙ†Ø§Ù…",
    "flag": "ğŸ‡»ğŸ‡³",
    "code": "VN",
    "dial_code": "+84"
  },
  {
    "id": 189,
    "name": "ÙÙŠØ¬ÙŠ",
    "flag": "ğŸ‡«ğŸ‡¯",
    "code": "FJ",
    "dial_code": "+679"
  },
  {
    "id": 190,
    "name": "Ù‚Ø¨Ø±Øµ",
    "flag": "ğŸ‡¨ğŸ‡¾",
    "code": "CY",
    "dial_code": "+357"
  },
  {
    "id": 191,
    "name": "Ù‚Ø·Ø±",
    "flag": "ğŸ‡¶ğŸ‡¦",
    "code": "QA",
    "dial_code": "+974"
  },
  {
    "id": 192,
    "name": "Ù‚ÙŠØ±ØºÙŠØ²Ø³ØªØ§Ù†",
    "flag": "ğŸ‡°ğŸ‡¬",
    "code": "KG",
    "dial_code": "+996"
  },
  {
    "id": 193,
    "name": "ÙƒØ§Ø²Ø§Ø®Ø³ØªØ§Ù†",
    "flag": "ğŸ‡°ğŸ‡¿",
    "code": "KZ",
    "dial_code": "+7"
  },
  {
    "id": 194,
    "name": "ÙƒØ§Ù„ÙŠØ¯ÙˆÙ†ÙŠØ§ Ø§Ù„Ø¬Ø¯ÙŠØ¯Ø©",
    "flag": "ğŸ‡³ğŸ‡¨",
    "code": "NC",
    "dial_code": "+687"
  },
  {
    "id": 195,
    "name": "ÙƒØ±ÙˆØ§ØªÙŠØ§",
    "flag": "ğŸ‡­ğŸ‡·",
    "code": "HR",
    "dial_code": "+385"
  },
  {
    "id": 196,
    "name": "ÙƒÙ…Ø¨ÙˆØ¯ÙŠØ§",
    "flag": "ğŸ‡°ğŸ‡­",
    "code": "KH",
    "dial_code": "+855"
  },
  {
    "id": 197,
    "name": "ÙƒÙ†Ø¯Ø§",
    "flag": "ğŸ‡¨ğŸ‡¦",
    "code": "CA",
    "dial_code": "+1"
  },
  {
    "id": 198,
    "name": "ÙƒÙˆØ¨Ø§",
    "flag": "ğŸ‡¨ğŸ‡º",
    "code": "CU",
    "dial_code": "+53"
  },
  {
    "id": 199,
    "name": "ÙƒÙˆØ±ÙŠØ§ Ø§Ù„Ø¬Ù†ÙˆØ¨ÙŠØ©",
    "flag": "ğŸ‡°ğŸ‡·",
    "code": "KR",
    "dial_code": "+82"
  },
  {
    "id": 200,
    "name": "ÙƒÙˆØ±ÙŠØ§ Ø§Ù„Ø´Ù…Ø§Ù„ÙŠØ©",
    "flag": "ğŸ‡°ğŸ‡µ",
    "code": "KP",
    "dial_code": "+850"
  },
  {
    "id": 201,
    "name": "ÙƒÙˆØ³ØªØ§Ø±ÙŠÙƒØ§",
    "flag": "ğŸ‡¨ğŸ‡·",
    "code": "CR",
    "dial_code": "+506"
  },
  {
    "id": 202,
    "name": "ÙƒÙˆØ³ÙˆÙÙˆ",
    "flag": "ğŸ‡½ğŸ‡°",
    "code": "XK",
    "dial_code": "+383"
  },
  {
    "id": 203,
    "name": "ÙƒÙˆÙ„ÙˆÙ…Ø¨ÙŠØ§",
    "flag": "ğŸ‡¨ğŸ‡´",
    "code": "CO",
    "dial_code": "+57"
  },
  {
    "id": 204,
    "name": "ÙƒÙŠØ±ÙŠØ¨Ø§ØªÙŠ",
    "flag": "ğŸ‡°ğŸ‡®",
    "code": "KI",
    "dial_code": "+686"
  },
  {
    "id": 205,
    "name": "ÙƒÙŠÙ†ÙŠØ§",
    "flag": "ğŸ‡°ğŸ‡ª",
    "code": "KE",
    "dial_code": "+254"
  },
  {
    "id": 206,
    "name": "Ù„Ø§ØªÙÙŠØ§",
    "flag": "ğŸ‡±ğŸ‡»",
    "code": "LV",
    "dial_code": "+371"
  },
  {
    "id": 207,
    "name": "Ù„Ø§ÙˆØ³",
    "flag": "ğŸ‡±ğŸ‡¦",
    "code": "LA",
    "dial_code": "+856"
  },
  {
    "id": 208,
    "name": "Ù„Ø¨Ù†Ø§Ù†",
    "flag": "ğŸ‡±ğŸ‡§",
    "code": "LB",
    "dial_code": "+961"
  },
  {
    "id": 209,
    "name": "Ù„ÙˆÙƒØ³Ù…Ø¨ÙˆØ±Øº",
    "flag": "ğŸ‡±ğŸ‡º",
    "code": "LU",
    "dial_code": "+352"
  },
  {
    "id": 210,
    "name": "Ù„ÙŠØ¨ÙŠØ±ÙŠØ§",
    "flag": "ğŸ‡±ğŸ‡·",
    "code": "LR",
    "dial_code": "+231"
  },
  {
    "id": 211,
    "name": "Ù„ÙŠØªÙˆØ§Ù†ÙŠØ§",
    "flag": "ğŸ‡±ğŸ‡¹",
    "code": "LT",
    "dial_code": "+370"
  },
  {
    "id": 212,
    "name": "Ù„ÙŠØ®ØªÙ†Ø´ØªØ§ÙŠÙ†",
    "flag": "ğŸ‡±ğŸ‡®",
    "code": "LI",
    "dial_code": "+423"
  },
  {
    "id": 213,
    "name": "Ù„ÙŠØ³ÙˆØªÙˆ",
    "flag": "ğŸ‡±ğŸ‡¸",
    "code": "LS",
    "dial_code": "+266"
  },
  {
    "id": 214,
    "name": "Ù…Ø§Ø±ØªÙŠÙ†ÙŠÙƒ",
    "flag": "ğŸ‡²ğŸ‡¶",
    "code": "MQ",
    "dial_code": "+596"
  },
  {
    "id": 215,
    "name": "Ù…Ø§ÙƒØ§Ùˆ",
    "flag": "ğŸ‡²ğŸ‡´",
    "code": "MO",
    "dial_code": "+853"
  },
  {
    "id": 216,
    "name": "Ù…Ø§Ù„Ø·Ø§",
    "flag": "ğŸ‡²ğŸ‡¹",
    "code": "MT",
    "dial_code": "+356"
  },
  {
    "id": 217,
    "name": "Ù…Ø§Ù„ÙŠ",
    "flag": "ğŸ‡²ğŸ‡±",
    "code": "ML",
    "dial_code": "+223"
  },
  {
    "id": 218,
    "name": "Ù…Ø§Ù„ÙŠØ²ÙŠØ§",
    "flag": "ğŸ‡²ğŸ‡¾",
    "code": "MY",
    "dial_code": "+60"
  },
  {
    "id": 219,
    "name": "Ù…Ø§ÙŠÙˆØª",
    "flag": "ğŸ‡¾ğŸ‡¹",
    "code": "YT",
    "dial_code": "+262"
  },
  {
    "id": 220,
    "name": "Ù…Ø¯ØºØ´Ù‚Ø±",
    "flag": "ğŸ‡²ğŸ‡¬",
    "code": "MG",
    "dial_code": "+261"
  },
  {
    "id": 221,
    "name": "Ù…ØµØ±",
    "flag": "ğŸ‡ªğŸ‡¬",
    "code": "EG",
    "dial_code": "+20"
  },
  {
    "id": 222,
    "name": "Ù…Ù‚Ø¯ÙˆÙ†ÙŠØ§",
    "flag": "ğŸ‡²ğŸ‡°",
    "code": "MK",
    "dial_code": "+389"
  },
  {
    "id": 223,
    "name": "Ù…Ù„Ø§ÙˆÙŠ",
    "flag": "ğŸ‡²ğŸ‡¼",
    "code": "MW",
    "dial_code": "+265"
  },
  {
    "id": 224,
    "name": "Ù…Ù†ØºÙˆÙ„ÙŠØ§",
    "flag": "ğŸ‡²ğŸ‡³",
    "code": "MN",
    "dial_code": "+976"
  },
  {
    "id": 225,
    "name": "Ù…ÙˆØ±ÙŠØªØ§Ù†ÙŠØ§",
    "flag": "ğŸ‡²ğŸ‡·",
    "code": "MR",
    "dial_code": "+222"
  },
  {
    "id": 226,
    "name": "Ù…ÙˆØ±ÙŠØ´ÙŠÙˆØ³",
    "flag": "ğŸ‡²ğŸ‡º",
    "code": "MU",
    "dial_code": "+230"
  },
  {
    "id": 227,
    "name": "Ù…ÙˆØ²Ù…Ø¨ÙŠÙ‚",
    "flag": "ğŸ‡²ğŸ‡¿",
    "code": "MZ",
    "dial_code": "+258"
  },
  {
    "id": 228,
    "name": "Ù…ÙˆÙ„Ø¯ÙˆÙØ§",
    "flag": "ğŸ‡²ğŸ‡©",
    "code": "MD",
    "dial_code": "+373"
  },
  {
    "id": 229,
    "name": "Ù…ÙˆÙ†Ø§ÙƒÙˆ",
    "flag": "ğŸ‡²ğŸ‡¨",
    "code": "MC",
    "dial_code": "+377"
  },
  {
    "id": 230,
    "name": "Ù…ÙˆÙ†ØªØ³Ø±Ø§Øª",
    "flag": "ğŸ‡²ğŸ‡¸",
    "code": "MS",
    "dial_code": "+1664"
  },
  {
    "id": 231,
    "name": "Ù…ÙŠØ§Ù†Ù…Ø§Ø±",
    "flag": "ğŸ‡²ğŸ‡²",
    "code": "MM",
    "dial_code": "+95"
  },
  {
    "id": 232,
    "name": "Ù†Ø§Ù…ÙŠØ¨ÙŠØ§",
    "flag": "ğŸ‡³ğŸ‡¦",
    "code": "NA",
    "dial_code": "+264"
  },
  {
    "id": 233,
    "name": "Ù†Ø§ÙˆØ±Ùˆ",
    "flag": "ğŸ‡³ğŸ‡·",
    "code": "NR",
    "dial_code": "+674"
  },
  {
    "id": 234,
    "name": "Ù†ÙŠØ¨Ø§Ù„",
    "flag": "ğŸ‡³ğŸ‡µ",
    "code": "NP",
    "dial_code": "+977"
  },
  {
    "id": 235,
    "name": "Ù†ÙŠØ¬ÙŠØ±ÙŠØ§",
    "flag": "ğŸ‡³ğŸ‡¬",
    "code": "NG",
    "dial_code": "+234"
  },
  {
    "id": 236,
    "name": "Ù†ÙŠÙƒØ§Ø±Ø§Ø¬ÙˆØ§",
    "flag": "ğŸ‡³ğŸ‡®",
    "code": "NI",
    "dial_code": "+505"
  },
  {
    "id": 237,
    "name": "Ù†ÙŠÙˆØ²ÙŠÙ„Ù†Ø¯Ø§",
    "flag": "ğŸ‡³ğŸ‡¿",
    "code": "NZ",
    "dial_code": "+64"
  },
  {
    "id": 238,
    "name": "Ù†ÙŠÙˆÙŠ",
    "flag": "ğŸ‡³ğŸ‡º",
    "code": "NU",
    "dial_code": "+683"
  },
  {
    "id": 239,
    "name": "Ù‡Ø§ÙŠØªÙŠ",
    "flag": "ğŸ‡­ğŸ‡¹",
    "code": "HT",
    "dial_code": "+509"
  },
  {
    "id": 240,
    "name": "Ù‡Ù†Ø¯ÙˆØ±Ø§Ø³",
    "flag": "ğŸ‡­ğŸ‡³",
    "code": "HN",
    "dial_code": "+504"
  },
  {
    "id": 241,
    "name": "Ù‡Ù†ØºØ§Ø±ÙŠØ§",
    "flag": "ğŸ‡­ğŸ‡º",
    "code": "HU",
    "dial_code": "+36"
  },
  {
    "id": 242,
    "name": "Ù‡ÙˆÙ„Ù†Ø¯Ø§",
    "flag": "ğŸ‡³ğŸ‡±",
    "code": "NL",
    "dial_code": "+31"
  },
  {
    "id": 243,
    "name": "Ù‡ÙˆÙ†Øº ÙƒÙˆÙ†Øº",
    "flag": "ğŸ‡­ğŸ‡°",
    "code": "HK",
    "dial_code": "+852"
  },
  {
    "id": 244,
    "name": "ÙˆØ§Ù„ÙŠØ³ ÙˆÙÙˆØªÙˆÙ†Ø§",
    "flag": "ğŸ‡¼ğŸ‡«",
    "code": "WF",
    "dial_code": "+681"
  },
  {
    "id": 245,
    "name": "ÙˆÙ„Ø§ÙŠØ§Øª Ù…ÙŠÙƒØ±ÙˆÙ†ÙŠØ²ÙŠØ§ Ø§Ù„Ù…ØªØ­Ø¯Ø©",
    "flag": "ğŸ‡«ğŸ‡²",
    "code": "FM",
    "dial_code": "+691"
  }
]
